CALSPHERE 1             
1 00900U 64063C   20118.89094501  .00000228  00000-0  23530-3 0  9994
2 00900  90.1576  27.5738 0025338 205.1295 243.9521 13.73362816763514
CALSPHERE 2             
1 00902U 64063E   20118.76810954  .00000033  00000-0  36520-4 0  9998
2 00902  90.1689  30.1901 0016330 252.4116 166.5355 13.52682624553232
LCS 1                   
1 01361U 65034C   20118.75237191 -.00000002  00000-0 -14104-2 0  9992
2 01361  32.1393  98.9163 0004926 295.9906  64.0084  9.89297186987905
TEMPSAT 1               
1 01512U 65065E   20118.78640672  .00000016  00000-0  12353-4 0  9998
2 01512  89.8763 226.7191 0071405  63.4165  89.1551 13.33427167661337
CALSPHERE 4(A)          
1 01520U 65065H   20118.87343963  .00000033  00000-0  48703-4 0  9997
2 01520  90.0314 128.9579 0068343 305.7251 170.9417 13.35811209663440
OPS 5712 (P/L 160)      
1 02826U 67053A   20118.88951307  .00000496  00000-0  14683-3 0  9996
2 02826  69.9278 317.2937 0005376 352.1167   7.9880 14.49047078739611
OPS 5712 (P/L 153)      
1 02874U 67053H   20118.77218486 -.00000017  00000-0  26054-4 0  9997
2 02874  69.9743 237.2044 0009589 236.0615 123.9580 13.96347069693887
SURCAL 150B             
1 02909U 67053J   20118.91534980  .00000647  00000-0  14321-3 0  9993
2 02909  69.9485 343.0319 0002242  58.3220 301.8138 14.61703087749490
RIGIDSPHERE 2 (LCS 4)   
1 05398U 71067E   20118.86154847  .00000147  00000-0  44795-4 0  9996
2 05398  87.6263 238.1028 0065589  80.3698 280.4900 14.33878033552397
